[{"OBJECT_NAME":"SL-16 R/B","OBJECT_ID":"1993-059B","EPOCH":"2026-03-27T19:52:19.745184","MEAN_MOTION":14.17235168,"ECCENTRICITY":0.0017468,"INCLINATION":70.9921,"RA_OF_ASC_NODE":332.8792,"ARG_OF_PERICENTER":190.2714,"MEAN_ANOMALY":169.8055,"EPHEMERIS_TYPE":0,"CLASSIFICATION_TYPE":"U","NORAD_CAT_ID":22803,"ELEMENT_SET_NO":999,"REV_AT_EPOCH":68210,"BSTAR":-6.151e-5,"MEAN_MOTION_DOT":-1.72e-6,"MEAN_MOTION_DDOT":0},{"OBJECT_NAME":"ARIANE 40 R/B","OBJECT_ID":"1993-061H","EPOCH":"2026-03-27T18:49:51.473856","MEAN_MOTION":14.32870324,"ECCENTRICITY":0.0009953,"INCLINATION":98.4883,"RA_OF_ASC_NODE":155.3123,"ARG_OF_PERICENTER":225.7038,"MEAN_ANOMALY":134.333,"EPHEMERIS_TYPE":0,"CLASSIFICATION_TYPE":"U","NORAD_CAT_ID":22830,"ELEMENT_SET_NO":999,"REV_AT_EPOCH":69669,"BSTAR":8.9926e-5,"MEAN_MOTION_DOT":2.02e-6,"MEAN_MOTION_DDOT":0},{"OBJECT_NAME":"COSMOS 2278","OBJECT_ID":"1994-023A","EPOCH":"2026-03-27T20:15:56.445984","MEAN_MOTION":14.1437579,"ECCENTRICITY":0.0009121,"INCLINATION":71.0519,"RA_OF_ASC_NODE":137.1177,"ARG_OF_PERICENTER":344.8745,"MEAN_ANOMALY":15.2104,"EPHEMERIS_TYPE":0,"CLASSIFICATION_TYPE":"U","NORAD_CAT_ID":23087,"ELEMENT_SET_NO":999,"REV_AT_EPOCH":64737,"BSTAR":-0.00010139,"MEAN_MOTION_DOT":-2.41e-6,"MEAN_MOTION_DDOT":0},{"OBJECT_NAME":"SL-16 R/B","OBJECT_ID":"1994-023B","EPOCH":"2026-03-27T14:23:56.853312","MEAN_MOTION":14.15014364,"ECCENTRICITY":0.0005457,"INCLINATION":71.0014,"RA_OF_ASC_NODE":33.2715,"ARG_OF_PERICENTER":268.8909,"MEAN_ANOMALY":91.1588,"EPHEMERIS_TYPE":0,"CLASSIFICATION_TYPE":"U","NORAD_CAT_ID":23088,"ELEMENT_SET_NO":999,"REV_AT_EPOCH":64862,"BSTAR":0.00019928,"MEAN_MOTION_DOT":3.38e-6,"MEAN_MOTION_DDOT":0},{"OBJECT_NAME":"SL-16 R/B","OBJECT_ID":"1994-074B","EPOCH":"2026-03-27T20:57:04.836960","MEAN_MOTION":14.79427896,"ECCENTRICITY":0.0007219,"INCLINATION":97.7083,"RA_OF_ASC_NODE":116.9524,"ARG_OF_PERICENTER":151.0753,"MEAN_ANOMALY":21.2144,"EPHEMERIS_TYPE":0,"CLASSIFICATION_TYPE":"U","NORAD_CAT_ID":23343,"ELEMENT_SET_NO":999,"REV_AT_EPOCH":68993,"BSTAR":6.7958e-5,"MEAN_MOTION_DOT":4.58e-6,"MEAN_MOTION_DDOT":0},{"OBJECT_NAME":"SL-16 R/B","OBJECT_ID":"1994-077B","EPOCH":"2026-03-27T18:52:39.450144","MEAN_MOTION":14.15569177,"ECCENTRICITY":0.0002005,"INCLINATION":70.9836,"RA_OF_ASC_NODE":314.4187,"ARG_OF_PERICENTER":197.5282,"MEAN_ANOMALY":162.5772,"EPHEMERIS_TYPE":0,"CLASSIFICATION_TYPE":"U","NORAD_CAT_ID":23405,"ELEMENT_SET_NO":999,"REV_AT_EPOCH":61879,"BSTAR":8.2838e-6,"MEAN_MOTION_DOT":-3.2e-7,"MEAN_MOTION_DDOT":0},{"OBJECT_NAME":"ARIANE 40+ R/B","OBJECT_ID":"1995-021B","EPOCH":"2026-03-27T19:50:09.178368","MEAN_MOTION":14.39785073,"ECCENTRICITY":0.0007944,"INCLINATION":98.4465,"RA_OF_ASC_NODE":158.0606,"ARG_OF_PERICENTER":89.7575,"MEAN_ANOMALY":25.2431,"EPHEMERIS_TYPE":0,"CLASSIFICATION_TYPE":"U","NORAD_CAT_ID":23561,"ELEMENT_SET_NO":999,"REV_AT_EPOCH":62185,"BSTAR":0.0001014,"MEAN_MOTION_DOT":2.75e-6,"MEAN_MOTION_DDOT":0},{"OBJECT_NAME":"SL-16 R/B","OBJECT_ID":"1995-058B","EPOCH":"2026-03-27T20:45:44.328096","MEAN_MOTION":14.15499512,"ECCENTRICITY":0.0010112,"INCLINATION":71.0205,"RA_OF_ASC_NODE":142.099,"ARG_OF_PERICENTER":92.1102,"MEAN_ANOMALY":268.1179,"EPHEMERIS_TYPE":0,"CLASSIFICATION_TYPE":"U","NORAD_CAT_ID":23705,"ELEMENT_SET_NO":999,"REV_AT_EPOCH":57042,"BSTAR":-0.00010255,"MEAN_MOTION_DOT":-2.48e-6,"MEAN_MOTION_DDOT":0},{"OBJECT_NAME":"SL-16 R/B","OBJECT_ID":"1996-051B","EPOCH":"2026-03-27T14:06:42.437088","MEAN_MOTION":14.12420658,"ECCENTRICITY":0.0013609,"INCLINATION":70.7588,"RA_OF_ASC_NODE":137.3571,"ARG_OF_PERICENTER":119.2534,"MEAN_ANOMALY":240.9948,"EPHEMERIS_TYPE":0,"CLASSIFICATION_TYPE":"U","NORAD_CAT_ID":24298,"ELEMENT_SET_NO":999,"REV_AT_EPOCH":52417,"BSTAR":7.6074e-5,"MEAN_MOTION_DOT":9.1e-7,"MEAN_MOTION_DDOT":0},{"OBJECT_NAME":"ORBVIEW 2 (SEASTAR)","OBJECT_ID":"1997-037A","EPOCH":"2026-03-27T16:18:50.178816","MEAN_MOTION":14.35507134,"ECCENTRICITY":0.0002464,"INCLINATION":98.86,"RA_OF_ASC_NODE":251.4712,"ARG_OF_PERICENTER":33.4511,"MEAN_ANOMALY":326.6829,"EPHEMERIS_TYPE":0,"CLASSIFICATION_TYPE":"U","NORAD_CAT_ID":24883,"ELEMENT_SET_NO":999,"REV_AT_EPOCH":51105,"BSTAR":0.00011513,"MEAN_MOTION_DOT":2.84e-6,"MEAN_MOTION_DDOT":0},{"OBJECT_NAME":"SL-16 R/B","OBJECT_ID":"1998-043G","EPOCH":"2026-03-27T20:00:32.625216","MEAN_MOTION":14.26053853,"ECCENTRICITY":0.0009252,"INCLINATION":98.8284,"RA_OF_ASC_NODE":40.3291,"ARG_OF_PERICENTER":327.5812,"MEAN_ANOMALY":32.4798,"EPHEMERIS_TYPE":0,"CLASSIFICATION_TYPE":"U","NORAD_CAT_ID":25400,"ELEMENT_SET_NO":999,"REV_AT_EPOCH":44157,"BSTAR":4.5666e-5,"MEAN_MOTION_DOT":6.4e-7,"MEAN_MOTION_DDOT":0},{"OBJECT_NAME":"SL-16 R/B","OBJECT_ID":"1998-045B","EPOCH":"2026-03-27T14:01:46.521408","MEAN_MOTION":14.16194394,"ECCENTRICITY":0.0007921,"INCLINATION":71.0104,"RA_OF_ASC_NODE":143.9442,"ARG_OF_PERICENTER":340.2276,"MEAN_ANOMALY":19.8539,"EPHEMERIS_TYPE":0,"CLASSIFICATION_TYPE":"U","NORAD_CAT_ID":25407,"ELEMENT_SET_NO":999,"REV_AT_EPOCH":42963,"BSTAR":-0.00010451,"MEAN_MOTION_DOT":-2.55e-6,"MEAN_MOTION_DDOT":0},{"OBJECT_NAME":"ISS (ZARYA)","OBJECT_ID":"1998-067A","EPOCH":"2026-03-27T20:12:32.650848","MEAN_MOTION":15.48591753,"ECCENTRICITY":0.0006212,"INCLINATION":51.6344,"RA_OF_ASC_NODE":342.6225,"ARG_OF_PERICENTER":240.1567,"MEAN_ANOMALY":119.8804,"EPHEMERIS_TYPE":0,"CLASSIFICATION_TYPE":"U","NORAD_CAT_ID":25544,"ELEMENT_SET_NO":999,"REV_AT_EPOCH":55914,"BSTAR":0.00022728,"MEAN_MOTION_DOT":0.0001192,"MEAN_MOTION_DDOT":0},{"OBJECT_NAME":"CZ-4B R/B","OBJECT_ID":"1999-025C","EPOCH":"2026-03-27T21:20:06.353952","MEAN_MOTION":14.18268789,"ECCENTRICITY":0.0036034,"INCLINATION":98.6589,"RA_OF_ASC_NODE":130.7365,"ARG_OF_PERICENTER":293.1656,"MEAN_ANOMALY":240.4836,"EPHEMERIS_TYPE":0,"CLASSIFICATION_TYPE":"U","NORAD_CAT_ID":25732,"ELEMENT_SET_NO":999,"REV_AT_EPOCH":39074,"BSTAR":4.4995e-5,"MEAN_MOTION_DOT":5.0e-7,"MEAN_MOTION_DDOT":0},{"OBJECT_NAME":"OKEAN-O","OBJECT_ID":"1999-039A","EPOCH":"2026-03-27T18:24:13.602240","MEAN_MOTION":14.80363147,"ECCENTRICITY":8.72e-5,"INCLINATION":97.9405,"RA_OF_ASC_NODE":146.4712,"ARG_OF_PERICENTER":90.5057,"MEAN_ANOMALY":269.6254,"EPHEMERIS_TYPE":0,"CLASSIFICATION_TYPE":"U","NORAD_CAT_ID":25860,"ELEMENT_SET_NO":999,"REV_AT_EPOCH":43706,"BSTAR":8.57e-5,"MEAN_MOTION_DOT":6.02e-6,"MEAN_MOTION_DDOT":0},{"OBJECT_NAME":"SL-16 R/B","OBJECT_ID":"1999-039B","EPOCH":"2026-03-27T17:30:46.220832","MEAN_MOTION":14.81755114,"ECCENTRICITY":0.0014466,"INCLINATION":97.9927,"RA_OF_ASC_NODE":145.796,"ARG_OF_PERICENTER":193.7724,"MEAN_ANOMALY":166.3095,"EPHEMERIS_TYPE":0,"CLASSIFICATION_TYPE":"U","NORAD_CAT_ID":25861,"ELEMENT_SET_NO":999,"REV_AT_EPOCH":43953,"BSTAR":7.2532e-5,"MEAN_MOTION_DOT":5.19e-6,"MEAN_MOTION_DDOT":0},{"OBJECT_NAME":"DELTA 2 R/B","OBJECT_ID":"1999-041E","EPOCH":"2026-03-27T20:20:22.507008","MEAN_MOTION":14.11877516,"ECCENTRICITY":0.050265,"INCLINATION":51.7606,"RA_OF_ASC_NODE":228.7451,"ARG_OF_PERICENTER":41.9822,"MEAN_ANOMALY":321.852,"EPHEMERIS_TYPE":0,"CLASSIFICATION_TYPE":"U","NORAD_CAT_ID":25876,"ELEMENT_SET_NO":999,"REV_AT_EPOCH":36559,"BSTAR":0.00017275,"MEAN_MOTION_DOT":8.28e-6,"MEAN_MOTION_DDOT":0}]
