SL-16 R/B               
1 22803U 93059B   26086.82800631 -.00000172  00000+0 -61510-4 0  9999
2 22803  70.9921 332.8792 0017468 190.2714 169.8055 14.17235168682108
ARIANE 40 R/B           
1 22830U 93061H   26086.78462354  .00000202  00000+0  89926-4 0  9996
2 22830  98.4883 155.3123 0009953 225.7038 134.3330 14.32870324696697
COSMOS 2278             
1 23087U 94023A   26086.84440331 -.00000241  00000+0 -10139-3 0  9992
2 23087  71.0519 137.1177 0009121 344.8745  15.2104 14.14375790647371
SL-16 R/B               
1 23088U 94023B   26086.59996358  .00000338  00000+0  19928-3 0  9990
2 23088  71.0014  33.2715 0005457 268.8909  91.1588 14.15014364648627
SL-16 R/B               
1 23343U 94074B   26086.87297265  .00000458  00000+0  67958-4 0  9992
2 23343  97.7083 116.9524 0007219 151.0753  21.2144 14.79427896689936
SL-16 R/B               
1 23405U 94077B   26086.78656771 -.00000032  00000+0  82838-5 0  9999
2 23405  70.9836 314.4187 0002005 197.5282 162.5772 14.15569177618795
ARIANE 40+ R/B          
1 23561U 95021B   26086.82649512  .00000275  00000+0  10140-3 0  9995
2 23561  98.4465 158.0606 0007944  89.7575  25.2431 14.39785073621852
SL-16 R/B               
1 23705U 95058B   26086.86509639 -.00000248  00000+0 -10255-3 0  9993
2 23705  71.0205 142.0990 0010112  92.1102 268.1179 14.15499512570422
SL-16 R/B               
1 24298U 96051B   26086.58799117  .00000091  00000+0  76074-4 0  9992
2 24298  70.7588 137.3571 0013609 119.2534 240.9948 14.12420658524171
ORBVIEW 2 (SEASTAR)     
1 24883U 97037A   26086.67974744  .00000284  00000+0  11513-3 0  9998
2 24883  98.8600 251.4712 0002464  33.4511 326.6829 14.35507134511054
SL-16 R/B               
1 25400U 98043G   26086.83371094  .00000064  00000+0  45666-4 0  9992
2 25400  98.8284  40.3291 0009252 327.5812  32.4798 14.26053853441578
SL-16 R/B               
1 25407U 98045B   26086.58456622 -.00000255  00000+0 -10451-3 0  9991
2 25407  71.0104 143.9442 0007921 340.2276  19.8539 14.16194394429634
ISS (ZARYA)             
1 25544U 98067A   26086.84204457  .00011920  00000+0  22728-3 0  9992
2 25544  51.6344 342.6225 0006212 240.1567 119.8804 15.48591753559148
CZ-4B R/B               
1 25732U 99025C   26086.88896243  .00000050  00000+0  44995-4 0  9993
2 25732  98.6589 130.7365 0036034 293.1656 240.4836 14.18268789390743
OKEAN-O                 
1 25860U 99039A   26086.76682410  .00000602  00000+0  85700-4 0  9998
2 25860  97.9405 146.4712 0000872  90.5057 269.6254 14.80363147437066
SL-16 R/B               
1 25861U 99039B   26086.72970163  .00000519  00000+0  72532-4 0  9996
2 25861  97.9927 145.7960 0014466 193.7724 166.3095 14.81755114439534
DELTA 2 R/B             
1 25876U 99041E   26086.84748272  .00000828  00000+0  17275-3 0  9997
2 25876  51.7606 228.7451 0502650  41.9822 321.8520 14.11877516365598
